IRIDIUM 156             
1 43576U 18061H   26188.69914796  .00000164  00000+0  51387-4 0  9995
2 43576  86.3942  48.1499 0002051  89.7201 270.4230 14.34216906416318
IRIDIUM 164             
1 43577U 18061J   26188.74988970  .00000137  00000+0  41757-4 0  9997
2 43577  86.3947  48.1694 0002267  90.0975 270.0480 14.34215918416363
IRIDIUM 159             
1 43578U 18061K   26188.02049019  .00000187  00000+0  59818-4 0  9993
2 43578  86.3956  48.4124 0002490  92.3377 267.8104 14.34212534416227
IRIDIUM 180             
1 43922U 19002A   26188.36883036  .00000171  00000+0  53909-4 0  9992
2 43922  86.3985 345.1599 0002266  91.1242 269.0213 14.34217063391885
IRIDIUM 176             
1 43923U 19002B   26188.41344219  .00000679  00000+0  10387-3 0  9999
2 43923  86.6103 345.0819 0002353  88.6688 271.4799 14.72241969402228
IRIDIUM 168             
1 43924U 19002C   26188.43225282  .00000046  00000+0  92597-5 0  9993
2 43924  86.3986 345.2112 0002229  90.5286 269.6165 14.34217652391875
IRIDIUM 173             
1 43925U 19002D   26188.41956986  .00000113  00000+0  33451-4 0  9992
2 43925  86.3983 345.1046 0002156  90.6699 269.4744 14.34217812391853
IRIDIUM 169             
1 43926U 19002E   26188.00606590  .00000235  00000+0  70386-4 0  9994
2 43926  86.4219  16.9051 0001693  95.1525 264.9867 14.38612974393073
IRIDIUM 172             
1 43927U 19002F   26188.41322748  .00000210  00000+0  68017-4 0  9991
2 43927  86.3984 345.1158 0002155  88.0621 272.0821 14.34217742391864
IRIDIUM 175             
1 43928U 19002G   26188.72365916  .00000270  00000+0  73618-4 0  9999
2 43928  86.4516 281.9370 0004828 130.4968 229.6655 14.43624521401946
IRIDIUM 171             
1 43929U 19002H   26188.39419985  .00000224  00000+0  72858-4 0  9993
2 43929  86.3994 345.4318 0002188  95.0226 265.1220 14.34216858391855
IRIDIUM 170             
1 43930U 19002J   26187.94383803  .00000707  00000+0  10825-3 0  9995
2 43930  86.6102 345.2804 0002362  85.1782 274.9705 14.72241895402164
IRIDIUM 167             
1 43931U 19002K   26188.38785736  .00000202  00000+0  64891-4 0  9999
2 43931  86.3984 345.1483 0002188 100.2055 259.9388 14.34216869391854
IRIDIUM 181             
1 56726U 23068S   26188.69728441  .00000225  00000+0  60850-4 0  9992
2 56726  86.4481  48.2145 0002469  85.2492 274.8991 14.43309563165396
IRIDIUM 177             
1 56727U 23068T   26188.73983098  .00000925  00000+0  11884-3 0  9998
2 56727  86.1980 319.0322 0002129  91.7607 268.3857 14.80021221169405
IRIDIUM 174             
1 56728U 23068U   26188.40721702  .00000710  00000+0  10870-3 0  9991
2 56728  86.6111 345.2360 0002113  82.0944 278.0513 14.72250857168990
IRIDIUM 178             
1 56729U 23068V   26188.45835441  .00000731  00000+0  93183-4 0  9995
2 56729  86.6532  16.8871 0002310  87.1357 273.0129 14.80023948169367
IRIDIUM 179             
1 56730U 23068W   26187.97975896  .00000848  00000+0  10874-3 0  9996
2 56730  86.6766  26.1256 0002264  90.3091 269.8390 14.80027672169291
